     3.04           N: GNSS NAV DATA    G: GPS              RINEX VERSION / TYPE
sbf2rin-15.6.1                          20241101 001713 UTC PGM / RUN BY / DATE 
GPSA   4.0047E-08  1.4901E-08 -1.1921E-07  5.9605E-08       IONOSPHERIC CORR    
GPSB   1.5155E+05 -4.9152E+04 -1.3107E+05 -1.9661E+05       IONOSPHERIC CORR    
                                                            COMMENT             
                                                            COMMENT             
FALK                                    MARKER NAME         COMMENT
80602M001                               MARKER NUMBER       COMMENT
  2106811.3440 -3355170.6666 -4981786.3348                  COMMENT
This data is provided as a public service by NASA/JPL.      COMMENT
No warranty is expressed or implied regarding suitability   COMMENT
for use.  For further information, contact:                 COMMENT
ggnops at jpl dot nasa dot gov                              COMMENT
                                                            END OF HEADER       
G02 2024 11 01 00 00 00-3.247014246881E-04 8.412825991400E-12 0.000000000000E+00
     3.900000000000E+01-1.175937500000E+02 4.410898017322E-09 8.916262524980E-01
    -6.642192602158E-06 1.630735280924E-02 6.638467311859E-06 5.153685794830E+03
     4.320000000000E+05 2.235174179077E-08-8.206550991446E-01-3.390014171600E-07
     9.667676498674E-01 2.588125000000E+02-1.109370468476E+00-8.258915445550E-09
    -4.850202030383E-10 1.000000000000E+00 2.338000000000E+03 0.000000000000E+00
     2.000000000000E+00 0.000000000000E+00-1.769512891769E-08 3.900000000000E+01
     4.248180000000E+05 4.000000000000E+00
G32 2024 11 01 00 00 00-5.797869525850E-04 4.888534022029E-12 0.000000000000E+00
     1.020000000000E+02 1.690625000000E+01 4.837344351952E-09 1.443548789350E+00
     8.605420589447E-07 7.965202559717E-03 4.561617970467E-06 5.153737508774E+03
     4.320000000000E+05-2.104789018631E-07 1.347830169142E+00 1.676380634308E-08
     9.626687070157E-01 2.903125000000E+02-2.134253718154E+00-8.338918778010E-09
     2.421529437849E-10 1.000000000000E+00 2.338000000000E+03 0.000000000000E+00
     2.000000000000E+00 0.000000000000E+00 9.313225746155E-10 1.020000000000E+02
     4.248180000000E+05 4.000000000000E+00
G03 2024 11 01 00 00 00 5.871108733118E-04 1.102762325900E-11 0.000000000000E+00
     1.010000000000E+02 3.406250000000E+00 3.568362922353E-09-2.627536974410E+00
     2.849847078323E-07 5.663740099408E-03 1.141242682934E-05 5.153636289597E+03
     4.320000000000E+05-5.587935447693E-08 3.163979560220E-01-3.911554813385E-08
     9.870119725304E-01 1.733437500000E+02 1.162115808662E+00-7.349234696553E-09
     4.460900100109E-10 1.000000000000E+00 2.338000000000E+03 0.000000000000E+00
     2.800000000000E+00 0.000000000000E+00 1.396983861923E-09 1.010000000000E+02
     4.248180000000E+05 4.000000000000E+00
G08 2024 11 01 00 00 00 4.009394906461E-04 1.080024958355E-11 0.000000000000E+00
     5.700000000000E+01 4.068750000000E+01 5.197716505756E-09 7.544906615759E-01
     2.313405275345E-06 9.872231516056E-03 9.592622518539E-07 5.153703504562E+03
     4.320000000000E+05 5.215406417847E-08-1.820684056765E+00 1.024454832077E-07
     9.505239985341E-01 3.505937500000E+02 3.743478159920E-01-8.769651005451E-09
    -6.785996949726E-11 1.000000000000E+00 2.338000000000E+03 0.000000000000E+00
     2.000000000000E+00 0.000000000000E+00 4.656612873077E-09 5.700000000000E+01
     4.248180000000E+05 4.000000000000E+00
G17 2024 11 01 00 00 00 5.755722522736E-04-1.375610736432E-11 0.000000000000E+00
     6.000000000000E+01 1.315625000000E+01 4.918061999880E-09 6.797310375489E-01
     4.786998033524E-07 1.354400254786E-02 1.631677150726E-06 5.153562219620E+03
     4.320000000000E+05-1.732259988785E-07-1.723434526434E+00-1.750886440277E-07
     9.662638135663E-01 3.549687500000E+02-1.279333415909E+00-8.740364071247E-09
    -3.785871982478E-11 1.000000000000E+00 2.338000000000E+03 0.000000000000E+00
     2.000000000000E+00 0.000000000000E+00-1.117587089539E-08 6.000000000000E+01
     4.248180000000E+05 4.000000000000E+00
G28 2024 11 01 00 00 00-4.645404405892E-04-1.227817847393E-11 0.000000000000E+00
     1.070000000000E+02-3.768750000000E+01 4.576976363723E-09 3.068535509255E+00
    -2.183020114899E-06 4.599415697157E-04 9.026378393173E-06 5.153747632980E+03
     4.320000000000E+05-3.352761268616E-08 2.374366149058E+00-9.313225746155E-09
     9.614084250342E-01 2.072500000000E+02 1.397755330966E+00-7.971403469522E-09
    -4.625192657839E-10 1.000000000000E+00 2.338000000000E+03 0.000000000000E+00
     2.000000000000E+00 0.000000000000E+00-9.313225746155E-09 8.750000000000E+02
     4.248180000000E+05 4.000000000000E+00
G10 2024 11 01 00 00 00-1.788814552128E-04-1.398348103976E-11 0.000000000000E+00
     3.600000000000E+01-6.125000000000E+00 3.534075779870E-09 2.713895635549E+00
    -3.464519977570E-07 9.889376349747E-03 1.152977347374E-05 5.153688451767E+03
     4.320000000000E+05 3.539025783539E-08 3.138607879388E-01-1.434236764908E-07
     9.866478770901E-01 1.697187500000E+02-2.367612518988E+00-7.306375768449E-09
     4.560904265684E-10 1.000000000000E+00 2.338000000000E+03 0.000000000000E+00
     2.000000000000E+00 0.000000000000E+00 2.328306436539E-09 3.600000000000E+01
     4.248180000000E+05 4.000000000000E+00
G31 2024 10 31 23 59 44-2.225167118013E-04 5.684341886081E-13 0.000000000000E+00
     2.000000000000E+00-3.540625000000E+01 4.656979696183E-09-3.108906238995E+00
    -1.937150955200E-06 1.069966831710E-02 9.613111615181E-06 5.153591094971E+03
     4.319840000000E+05-5.774199962616E-08 2.427824503813E+00-1.676380634308E-07
     9.543270340201E-01 1.922500000000E+02 7.618854213459E-01-7.864256149264E-09
    -4.550189533658E-10 1.000000000000E+00 2.338000000000E+03 0.000000000000E+00
     2.000000000000E+00 0.000000000000E+00-1.303851604462E-08 2.000000000000E+00
     4.248180000000E+05 4.000000000000E+00
G04 2024 11 01 00 00 00 4.716515541077E-04 6.593836587854E-12 0.000000000000E+00
     1.810000000000E+02 8.500000000000E+00 4.759841123631E-09 4.407205730952E-01
     4.861503839493E-07 3.119570901617E-03 4.358589649200E-06 5.153684461594E+03
     4.320000000000E+05 6.146728992462E-08 1.393344681233E+00 4.656612873077E-08
     9.655960309619E-01 2.975625000000E+02-3.009155145082E+00-8.234628719625E-09
     1.796503403006E-10 1.000000000000E+00 2.338000000000E+03 0.000000000000E+00
     2.000000000000E+00 0.000000000000E+00-4.656612873077E-09 9.490000000000E+02
     4.259880000000E+05 4.000000000000E+00
G19 2024 11 01 00 00 00 5.573658272624E-04 4.547473508865E-12 0.000000000000E+00
     2.400000000000E+01 1.228125000000E+01 4.874488756308E-09 2.566092618618E+00
     7.078051567078E-07 9.972505853511E-03 9.406358003616E-07 5.153745683670E+03
     4.320000000000E+05-3.166496753693E-08-1.679169423918E+00 2.458691596985E-07
     9.654583747594E-01 3.652187500000E+02 2.672131476339E+00-8.459638092168E-09
    -7.857470152314E-11 1.000000000000E+00 2.338000000000E+03 0.000000000000E+00
     2.000000000000E+00 0.000000000000E+00-1.536682248116E-08 2.400000000000E+01
     4.275480000000E+05 4.000000000000E+00
G25 2024 10 31 23 59 28 4.992843605578E-04-2.273736754432E-13 0.000000000000E+00
     0.000000000000E+00 1.039062500000E+02 4.535903224290E-09-2.941633820273E+00
     5.224719643593E-06 1.197821251117E-02 1.057982444763E-05 5.153724409103E+03
     4.319680000000E+05 1.806765794754E-07-2.850281751596E+00-1.955777406693E-07
     9.499686923863E-01 1.660937500000E+02 1.095597631650E+00-7.867827726606E-09
     2.103659054415E-10 1.000000000000E+00 2.338000000000E+03 0.000000000000E+00
     2.000000000000E+00 0.000000000000E+00 5.587935447693E-09 0.000000000000E+00
     4.291560000000E+05 4.000000000000E+00
G09 2024 11 01 00 00 00 4.234812222421E-04 1.682565198280E-11 0.000000000000E+00
     4.000000000000E+01 1.278125000000E+01 4.878060333650E-09 1.271978960995E+00
     6.519258022308E-07 3.199702128768E-03 4.470348358154E-06 5.153561002731E+03
     4.320000000000E+05 5.587935447693E-08 1.332584020205E+00-6.146728992462E-08
     9.593490898832E-01 2.913437500000E+02 2.005719139030E+00-8.283916486944E-09
     2.432244169875E-10 1.000000000000E+00 2.338000000000E+03 0.000000000000E+00
     2.000000000000E+00 0.000000000000E+00 4.656612873077E-10 4.000000000000E+01
     4.304880000000E+05 4.000000000000E+00
G06 2024 11 01 00 00 00-8.021248504519E-05-2.842170943040E-11 0.000000000000E+00
     7.000000000000E+01-1.168437500000E+02 3.785871982478E-09-1.153919034777E+00
    -6.010755896568E-06 3.200434148312E-03 8.001923561096E-06 5.153724235535E+03
     4.320000000000E+05-2.048909664154E-08-7.188333397796E-01 2.607703208923E-08
     9.895119810315E-01 2.409687500000E+02-7.692101702454E-01-7.816754170615E-09
    -4.046597128442E-10 1.000000000000E+00 2.338000000000E+03 0.000000000000E+00
     2.000000000000E+00 0.000000000000E+00 3.725290298462E-09 7.000000000000E+01
     4.313280000000E+05 4.000000000000E+00
G26 2024 10 31 23 59 44 4.141265526414E-05-9.890754881781E-12 0.000000000000E+00
     0.000000000000E+00 9.193750000000E+01 4.999851121011E-09 2.592514586856E+00
     4.809349775314E-06 9.474940830842E-03 1.067295670509E-05 5.153731359482E+03
     4.319840000000E+05-1.117587089539E-07-2.915676866879E+00-1.564621925354E-07
     9.307503975586E-01 1.582500000000E+02 5.711421600092E-01-8.054621221590E-09
     1.460775132862E-10 1.000000000000E+00 2.338000000000E+03 0.000000000000E+00
     2.000000000000E+00 0.000000000000E+00 6.519258022308E-09 0.000000000000E+00
     4.318080000000E+05 4.000000000000E+00
